GLOBALSTAR M023 [+]     
1 25621U 99004A   23298.60962288 -.00000076  00000+0  15378-3 0  9993
2 25621  52.0102  82.1051 0009115 233.7933 208.0607 12.62443650139875
GLOBALSTAR M040 [-]     
1 25622U 99004B   23298.59009091 -.00000086  00000+0  96463-4 0  9992
2 25622  51.9908  85.4433 0001326 124.2605 314.4643 12.61957908139422
GLOBALSTAR M036 [-]     
1 25623U 99004C   23298.95387517 -.00000040  00000+0  62137-3 0  9995
2 25623  51.9998  22.3352 0010509 346.7841 185.2342 11.86554906107723
GLOBALSTAR M038 [-]     
1 25624U 99004D   23298.59000896 -.00000064  00000+0  25232-3 0  9999
2 25624  51.9998   1.1577 0001528 229.1785 277.5310 12.32486425128310
GLOBALSTAR M046 [-]     
1 25651U 99012C   23298.57933102 -.00000010  00000+0  86334-3 0  9992
2 25651  52.0036  95.6385 0003046 122.6995 312.7938 12.09377429110997
GLOBALSTAR M037 [+]     
1 25652U 99012D   23299.21215087 -.00000085  00000+0  10368-3 0  9996
2 25652  51.9997 211.1235 0001531 324.8755 190.8864 12.62386758135554
